GECAM-B                 
1 47235U 20094B   26058.19405615  .00003224  00000+0  23073-3 0  9996
2 47235  28.9982  10.8844 0010635 257.2071 102.7339 15.01652363285175
STARLINK-5720           
1 55619U 23020BC  26068.17075669 -.00000783  00000+0 -42936-4 0  9993
2 55619  43.0063 354.2756 0001083 271.0905  88.9814 15.02528619168992
